[{"OBJECT_NAME":"STARLINK-32226","OBJECT_ID":"2024-144B","EPOCH":"2026-03-09T16:14:50.229600","MEAN_MOTION":15.30187977,"ECCENTRICITY":0.00010916,"INCLINATION":53.1606,"RA_OF_ASC_NODE":217.4479,"ARG_OF_PERICENTER":78.9057,"MEAN_ANOMALY":281.2067,"EPHEMERIS_TYPE":0,"CLASSIFICATION_TYPE":"U","NORAD_CAT_ID":60426,"ELEMENT_SET_NO":999,"REV_AT_EPOCH":8930,"BSTAR":-4.8245355e-5,"MEAN_MOTION_DOT":-1.787e-5,"MEAN_MOTION_DDOT":0},{"OBJECT_NAME":"COSMOS 374 DEB","OBJECT_ID":"1970-089CW","EPOCH":"2026-03-09T03:15:05.416704","MEAN_MOTION":14.81622526,"ECCENTRICITY":0.02351408,"INCLINATION":62.872,"RA_OF_ASC_NODE":339.5893,"ARG_OF_PERICENTER":12.2958,"MEAN_ANOMALY":348.3731,"EPHEMERIS_TYPE":0,"CLASSIFICATION_TYPE":"U","NORAD_CAT_ID":14122,"ELEMENT_SET_NO":999,"REV_AT_EPOCH":22578,"BSTAR":0.0042555676,"MEAN_MOTION_DOT":0.00054686,"MEAN_MOTION_DDOT":0}]
